STARLINK-2667           
1 48663U 21044AB  26068.39219431 -.00000862  00000+0 -16987-4 0  9994
2 48663  53.1586 105.2090 0001341  84.4457 275.6697 15.30194564263927
NUSHSAT1                
1 63211U 25052B   26068.64700493  .00023034  00000+0  74857-3 0  9997
2 63211  97.4095 325.7239 0005501  84.7512 275.4357 15.31903202 54882
